start=new Date('2022-02-11T00:00:00.000Z').valueOf();
sats=[{"GP_ID":"195717270","ARG_OF_PERICENTER":"19.6358","OBJECT_NAME":"STARLINK-3400","DECAY_DATE":null,"EPHEMERIS_TYPE":"0","INCLINATION":"53.2186","TIME_SYSTEM":"UTC","FILE":"3297147","OBJECT_ID":"2022-005AA","CLASSIFICATION_TYPE":"U","MEAN_ELEMENT_THEORY":"SGP4","SEMIMAJOR_AXIS":"6727.684","ELEMENT_SET_NO":"999","REV_AT_EPOCH":"378","COUNTRY_CODE":"US","TLE_LINE1":"1 51128U 22005AA  22041.82497581  .00068841  00000-0  48930-3 0  9993","MEAN_MOTION_DOT":"0.00068841","NORAD_CAT_ID":"51128","PERIOD":"91.529","RA_OF_ASC_NODE":"161.7262","ECCENTRICITY":"0.00026380","PERIAPSIS":"347.774","RCS_SIZE":"LARGE","MEAN_MOTION_DDOT":"0.0000000000000","MEAN_MOTION":"15.73274144","CENTER_NAME":"EARTH","APOAPSIS":"351.324","BSTAR":"0.00048930000000","LAUNCH_DATE":"2022-01-19","EPOCH":"2022-02-10T19:47:57.909984","TLE_LINE2":"2 51128  53.2186 161.7262 0002638  19.6358 340.4763 15.73274144  3783","SITE":"AFETR","REF_FRAME":"TEME","MEAN_ANOMALY":"340.4763","OBJECT_TYPE":"PAYLOAD"},{"APOAPSIS":"331.001","MEAN_MOTION":"15.80177747","CENTER_NAME":"EARTH","RCS_SIZE":"MEDIUM","PERIAPSIS":"328.878","MEAN_MOTION_DDOT":"0.0000000000000","ECCENTRICITY":"0.00015820","TLE_LINE2":"2 51129  53.2209 159.9831 0001582  34.6678 325.4448 15.80177747  3816","SITE":"AFETR","REF_FRAME":"TEME","MEAN_ANOMALY":"325.4448","OBJECT_TYPE":"PAYLOAD","EPOCH":"2022-02-10T21:31:18.750720","BSTAR":"-0.00159300000000","LAUNCH_DATE":"2022-01-19","OBJECT_ID":"2022-005AB","CLASSIFICATION_TYPE":"U","MEAN_ELEMENT_THEORY":"SGP4","SEMIMAJOR_AXIS":"6708.075","ELEMENT_SET_NO":"999","INCLINATION":"53.2209","TIME_SYSTEM":"UTC","FILE":"3297147","OBJECT_NAME":"STARLINK-3396","DECAY_DATE":null,"EPHEMERIS_TYPE":"0","GP_ID":"195717445","ARG_OF_PERICENTER":"34.6678","RA_OF_ASC_NODE":"159.9831","TLE_LINE1":"1 51129U 22005AB  22041.89674480 -.00295035  00000-0 -15930-2 0  9998","MEAN_MOTION_DOT":"-0.00295035","NORAD_CAT_ID":"51129","PERIOD":"91.129","REV_AT_EPOCH":"381","COUNTRY_CODE":"US"},{"INCLINATION":"53.2180","FILE":"3297147","TIME_SYSTEM":"UTC","OBJECT_ID":"2022-005AC","ELEMENT_SET_NO":"999","SEMIMAJOR_AXIS":"6727.809","CLASSIFICATION_TYPE":"U","MEAN_ELEMENT_THEORY":"SGP4","GP_ID":"195717687","ARG_OF_PERICENTER":"26.3496","OBJECT_NAME":"STARLINK-3395","DECAY_DATE":null,"EPHEMERIS_TYPE":"0","MEAN_MOTION_DOT":"0.00033181","TLE_LINE1":"1 51130U 22005AC  22041.82553680  .00033181  00000-0  23957-3 0  9990","PERIOD":"91.531","NORAD_CAT_ID":"51130","RA_OF_ASC_NODE":"161.7264","REV_AT_EPOCH":"378","COUNTRY_CODE":"US","MEAN_MOTION":"15.73230159","CENTER_NAME":"EARTH","APOAPSIS":"351.491","ECCENTRICITY":"0.00027000","RCS_SIZE":"LARGE","PERIAPSIS":"347.858","MEAN_MOTION_DDOT":"0.0000000000000","SITE":"AFETR","REF_FRAME":"TEME","TLE_LINE2":"2 51130  53.2180 161.7264 0002700  26.3496 333.7661 15.73230159  3780","OBJECT_TYPE":"PAYLOAD","MEAN_ANOMALY":"333.7661","BSTAR":"0.00023957000000","LAUNCH_DATE":"2022-01-19","EPOCH":"2022-02-10T19:48:46.379520"},{"RCS_SIZE":"LARGE","PERIAPSIS":"348.503","MEAN_MOTION_DDOT":"0.0000000000000","ECCENTRICITY":"0.00017490","APOAPSIS":"350.856","MEAN_MOTION":"15.73228396","CENTER_NAME":"EARTH","EPOCH":"2022-02-10T19:48:18.459360","BSTAR":"0.00025317000000","LAUNCH_DATE":"2022-01-19","REF_FRAME":"TEME","SITE":"AFETR","TLE_LINE2":"2 51131  53.2171 161.7234 0001749  25.6649 334.4458 15.73228396  3784","OBJECT_TYPE":"PAYLOAD","MEAN_ANOMALY":"334.4458","OBJECT_NAME":"STARLINK-3388","DECAY_DATE":null,"EPHEMERIS_TYPE":"0","GP_ID":"195717531","ARG_OF_PERICENTER":"25.6649","OBJECT_ID":"2022-005AD","SEMIMAJOR_AXIS":"6727.814","ELEMENT_SET_NO":"999","MEAN_ELEMENT_THEORY":"SGP4","CLASSIFICATION_TYPE":"U","INCLINATION":"53.2171","FILE":"3297147","TIME_SYSTEM":"UTC","REV_AT_EPOCH":"378","COUNTRY_CODE":"US","RA_OF_ASC_NODE":"161.7234","MEAN_MOTION_DOT":"0.00035103","TLE_LINE1":"1 51131U 22005AD  22041.82521365  .00035103  00000-0  25317-3 0  9994","PERIOD":"91.532","NORAD_CAT_ID":"51131"},{"COUNTRY_CODE":"US","REV_AT_EPOCH":"371","RA_OF_ASC_NODE":"161.2786","PERIOD":"91.532","NORAD_CAT_ID":"51132","MEAN_MOTION_DOT":"0.00024777","TLE_LINE1":"1 51132U 22005AE  22041.91667824  .00024777  00000-0  18026-3 0  9990","EPHEMERIS_TYPE":"0","DECAY_DATE":null,"OBJECT_NAME":"STARLINK-3393","ARG_OF_PERICENTER":"22.4991","GP_ID":"195717600","SEMIMAJOR_AXIS":"6727.832","ELEMENT_SET_NO":"999","CLASSIFICATION_TYPE":"U","MEAN_ELEMENT_THEORY":"SGP4","OBJECT_ID":"2022-005AE","FILE":"3297147","TIME_SYSTEM":"UTC","INCLINATION":"53.2167","EPOCH":"2022-02-10T22:00:00.999936","LAUNCH_DATE":"2022-01-19","BSTAR":"0.00018026000000","OBJECT_TYPE":"PAYLOAD","MEAN_ANOMALY":"135.4090","SITE":"AFETR","REF_FRAME":"TEME","TLE_LINE2":"2 51132  53.2167 161.2786 0002144  22.4991 135.4090 15.73222328  3715","MEAN_MOTION_DDOT":"0.0000000000000","RCS_SIZE":"LARGE","PERIAPSIS":"348.254","ECCENTRICITY":"0.00021440","APOAPSIS":"351.139","CENTER_NAME":"EARTH","MEAN_MOTION":"15.73222328"},{"MEAN_ANOMALY":"327.9933","OBJECT_TYPE":"PAYLOAD","TLE_LINE2":"2 51133  53.2183 161.7213 0003476  32.1299 327.9933 15.73223776  3781","REF_FRAME":"TEME","SITE":"AFETR","EPOCH":"2022-02-10T19:47:49.622496","LAUNCH_DATE":"2022-01-19","BSTAR":"0.00019216000000","APOAPSIS":"352.031","CENTER_NAME":"EARTH","MEAN_MOTION":"15.73223776","MEAN_MOTION_DDOT":"0.0000000000000","RCS_SIZE":"LARGE","PERIAPSIS":"347.354","ECCENTRICITY":"0.00034760","RA_OF_ASC_NODE":"161.7213","NORAD_CAT_ID":"51133","PERIOD":"91.532","TLE_LINE1":"1 51133U 22005AF  22041.82487989  .00026465  00000-0  19216-3 0  9991","MEAN_MOTION_DOT":"0.00026465","COUNTRY_CODE":"US","REV_AT_EPOCH":"378","MEAN_ELEMENT_THEORY":"SGP4","CLASSIFICATION_TYPE":"U","SEMIMAJOR_AXIS":"6727.827","ELEMENT_SET_NO":"999","OBJECT_ID":"2022-005AF","TIME_SYSTEM":"UTC","FILE":"3297147","INCLINATION":"53.2183","EPHEMERIS_TYPE":"0","DECAY_DATE":null,"OBJECT_NAME":"STARLINK-3356","ARG_OF_PERICENTER":"32.1299","GP_ID":"195717774"},{"REV_AT_EPOCH":"380","COUNTRY_CODE":"US","RA_OF_ASC_NODE":"160.9962","MEAN_MOTION_DOT":"0.00053538","TLE_LINE1":"1 51134U 22005AG  22041.82843227  .00053538  00000-0  38309-3 0  9998","NORAD_CAT_ID":"51134","PERIOD":"91.532","OBJECT_NAME":"STARLINK-3183","DECAY_DATE":null,"EPHEMERIS_TYPE":"0","GP_ID":"195717358","ARG_OF_PERICENTER":"10.9999","OBJECT_ID":"2022-005AG","MEAN_ELEMENT_THEORY":"SGP4","CLASSIFICATION_TYPE":"U","SEMIMAJOR_AXIS":"6727.836","ELEMENT_SET_NO":"999","INCLINATION":"53.2123","TIME_SYSTEM":"UTC","FILE":"3297147","EPOCH":"2022-02-10T19:52:56.548128","BSTAR":"0.00038309000000","LAUNCH_DATE":"2022-01-19","TLE_LINE2":"2 51134  53.2123 160.9962 0002062  10.9999 349.1066 15.73220828  3800","SITE":"AFETR","REF_FRAME":"TEME","MEAN_ANOMALY":"349.1066","OBJECT_TYPE":"PAYLOAD","PERIAPSIS":"348.314","RCS_SIZE":"LARGE","MEAN_MOTION_DDOT":"0.0000000000000","ECCENTRICITY":"0.00020620","APOAPSIS":"351.088","MEAN_MOTION":"15.73220828","CENTER_NAME":"EARTH"},{"OBJECT_TYPE":"PAYLOAD","MEAN_ANOMALY":"133.2307","SITE":"AFETR","REF_FRAME":"TEME","TLE_LINE2":"2 51135  53.2187 161.2681 0002126  27.7188 133.2307 15.73296976  3717","LAUNCH_DATE":"2022-01-19","BSTAR":"-0.00061847000000","EPOCH":"2022-02-10T22:00:00.999936","CENTER_NAME":"EARTH","MEAN_MOTION":"15.73296976","APOAPSIS":"350.914","ECCENTRICITY":"0.00021260","MEAN_MOTION_DDOT":"0.0000000000000","PERIAPSIS":"348.053","RCS_SIZE":"LARGE","PERIOD":"91.528","NORAD_CAT_ID":"51135","TLE_LINE1":"1 51135U 22005AH  22041.91667824 -.00086897  00000-0 -61847-3 0  9995","MEAN_MOTION_DOT":"-0.00086897","RA_OF_ASC_NODE":"161.2681","COUNTRY_CODE":"US","REV_AT_EPOCH":"371","FILE":"3297147","TIME_SYSTEM":"UTC","INCLINATION":"53.2187","ELEMENT_SET_NO":"999","SEMIMAJOR_AXIS":"6727.619","MEAN_ELEMENT_THEORY":"SGP4","CLASSIFICATION_TYPE":"U","OBJECT_ID":"2022-005AH","ARG_OF_PERICENTER":"27.7188","GP_ID":"195717861","EPHEMERIS_TYPE":"0","DECAY_DATE":null,"OBJECT_NAME":"STARLINK-3363"},{"PERIOD":"90.734","NORAD_CAT_ID":"51136","TLE_LINE1":"1 51136U 22005AJ  22041.68287596 -.00277347  00000-0 -10767-2 0  9990","MEAN_MOTION_DOT":"-0.00277347","RA_OF_ASC_NODE":"160.7709","COUNTRY_CODE":"US","REV_AT_EPOCH":"378","FILE":"3297147","TIME_SYSTEM":"UTC","INCLINATION":"53.2203","SEMIMAJOR_AXIS":"6688.668","ELEMENT_SET_NO":"999","MEAN_ELEMENT_THEORY":"SGP4","CLASSIFICATION_TYPE":"U","OBJECT_ID":"2022-005AJ","ARG_OF_PERICENTER":"6.7538","GP_ID":"195717271","EPHEMERIS_TYPE":"0","OBJECT_NAME":"STARLINK-3253","DECAY_DATE":null,"OBJECT_TYPE":"PAYLOAD","MEAN_ANOMALY":"353.3505","SITE":"AFETR","REF_FRAME":"TEME","TLE_LINE2":"2 51136  53.2203 160.7709 0001249   6.7538 353.3505 15.87059908  3782","LAUNCH_DATE":"2022-01-19","BSTAR":"-0.00107670000000","EPOCH":"2022-02-10T16:23:20.482944","CENTER_NAME":"EARTH","MEAN_MOTION":"15.87059908","APOAPSIS":"311.368","ECCENTRICITY":"0.00012490","MEAN_MOTION_DDOT":"0.0000000000000","RCS_SIZE":"LARGE","PERIAPSIS":"309.697"},{"BSTAR":"-0.00058836000000","LAUNCH_DATE":"2022-01-19","EPOCH":"2022-02-10T22:00:00.999936","SITE":"AFETR","REF_FRAME":"TEME","TLE_LINE2":"2 51137  53.2174 161.2639 0002240  25.7202 137.8800 15.73259142  3712","OBJECT_TYPE":"PAYLOAD","MEAN_ANOMALY":"137.8800","ECCENTRICITY":"0.00022400","RCS_SIZE":"LARGE","PERIAPSIS":"348.085","MEAN_MOTION_DDOT":"0.0000000000000","MEAN_MOTION":"15.73259142","CENTER_NAME":"EARTH","APOAPSIS":"351.099","REV_AT_EPOCH":"371","COUNTRY_CODE":"US","MEAN_MOTION_DOT":"-0.00082606","TLE_LINE1":"1 51137U 22005AK  22041.91667824 -.00082606  00000-0 -58836-3 0  9995","PERIOD":"91.530","NORAD_CAT_ID":"51137","RA_OF_ASC_NODE":"161.2639","GP_ID":"195717446","ARG_OF_PERICENTER":"25.7202","DECAY_DATE":null,"OBJECT_NAME":"STARLINK-3180","EPHEMERIS_TYPE":"0","INCLINATION":"53.2174","FILE":"3297147","TIME_SYSTEM":"UTC","OBJECT_ID":"2022-005AK","SEMIMAJOR_AXIS":"6727.727","ELEMENT_SET_NO":"999","CLASSIFICATION_TYPE":"U","MEAN_ELEMENT_THEORY":"SGP4"}];
